Facility Number,Hospital,Address,City,State,Zip,Hospital Contact First Name,Hospital Contact Second Name,Hospital Contact Email
1822,San Jorge Children's Foundation,P.O. Box 6719,San Jorge,PR,914,Juan,Soto,jsoto@fnsj.org
1854,San Jorge Children's Foundation,P.O. Box 6719,San Jorge,PR,914,Juan,Soto,jsoto@fnsj.org
2026,San Jorge Children's Foundation,P.O. Box 6719,San Jorge,PR,914,Juan,Soto,jsoto@fnsj.org
2067,San Jorge Children's Foundation,P.O. Box 6719,San Jorge,PR,914,Juan,Soto,jsoto@fnsj.org
2072,San Jorge Children's Foundation,P.O. Box 6719,San Jorge,PR,914,Juan,Soto,jsoto@fnsj.org
2085,San Jorge Children's Foundation,P.O. Box 6719,San Jorge,PR,914,Juan,Soto,jsoto@fnsj.org
2240,San Jorge Children's Foundation,P.O. Box 6719,San Jorge,PR,914,Juan,Soto,jsoto@fnsj.org
2302,San Jorge Children's Foundation,P.O. Box 6719,San Jorge,PR,914,Juan,Soto,jsoto@fnsj.org
2346,San Jorge Children's Foundation,P.O. Box 6719,San Jorge,PR,914,Juan,Soto,jsoto@fnsj.org
2423,San Jorge Children's Foundation,P.O. Box 6719,San Jorge,PR,914,Juan,Soto,jsoto@fnsj.org
2449,San Jorge Children's Foundation,P.O. Box 6719,San Jorge,PR,914,Juan,Soto,jsoto@fnsj.org
2501,San Jorge Children's Foundation,P.O. Box 6719,San Jorge,PR,914,Juan,Soto,jsoto@fnsj.org
2721,San Jorge Children's Foundation,P.O. Box 6719,San Jorge,PR,914,Juan,Soto,jsoto@fnsj.org
3693,San Jorge Children's Foundation,P.O. Box 6719,San Jorge,PR,914,Juan,Soto,jsoto@fnsj.org
3716,San Jorge Children's Foundation,P.O. Box 6719,San Jorge,PR,914,Juan,Soto,jsoto@fnsj.org
4866,San Jorge Children's Foundation,P.O. Box 6719,San Jorge,PR,914,Juan,Soto,jsoto@fnsj.org
5793,San Jorge Children's Foundation,P.O. Box 6719,San Jorge,PR,914,Juan,Soto,jsoto@fnsj.org
5802,San Jorge Children's Foundation,P.O. Box 6719,San Jorge,PR,914,Juan,Soto,jsoto@fnsj.org
5803,San Jorge Children's Foundation,P.O. Box 6719,San Jorge,PR,914,Juan,Soto,jsoto@fnsj.org
6225,San Jorge Children's Foundation,P.O. Box 6719,San Jorge,PR,914,Juan,Soto,jsoto@fnsj.org
6270,San Jorge Children's Foundation,P.O. Box 6719,San Jorge,PR,914,Juan,Soto,jsoto@fnsj.org
6543,San Jorge Children's Foundation,P.O. Box 6719,San Jorge,PR,914,Juan,Soto,jsoto@fnsj.org
6680,San Jorge Children's Foundation,P.O. Box 6719,San Jorge,PR,914,Juan,Soto,jsoto@fnsj.org
6689,San Jorge Children's Foundation,P.O. Box 6719,San Jorge,PR,914,Juan,Soto,jsoto@fnsj.org
6690,San Jorge Children's Foundation,P.O. Box 6719,San Jorge,PR,914,Juan,Soto,jsoto@fnsj.org
