Store List,Address ,City,State,Zip 
1,2110 W WALNUT ST,ROGERS,AR,72756
96,1700 N STATE ROUTE 2,HARRISONVILLE,MO,64701
195,2203 PATSY LN,EXCELSIOR SPRINGS,MO,64024
202,16066 STATE HIGHWAY,FRISCO,TX,75035
234,8301 N CHURCH RD,KANSAS CITY,MO,64158
242,310 HEDGE LN,PAOLA,KS,66071
266,1601 W STATE HIGHWAY,GRAPEVINE,TX,76051
319,2015 W FOXWOOD DR,RAYMORE,MO,64083
325,908 WALTON WAY,RICHMOND,MO,64085
351,25800 KUYKENDAHL RD,TOMBALL,TX,77375
388,2100 N 62ND ST,FORT SMITH,AR,72904
462,400 HIGHWAY 35 BYP N,ALVIN,TX,77511
504,6702 SEAWALL BLVD,GALVESTON,TX,77551
579,2355 US HIGHWAY 1 S,ST AUGUSTINE,FL,32086
582,1590 DUNLAWTON AVE,PORT ORANGE,FL,32127
602,1025 SAWDUST RD,SPRING,TX,77380
703,27650 STATE HIGHWAY,TOMBALL,TX,77375
713,12650 US HIGHWAY 301,DADE CITY,FL,33525
759,1480 US HIGHWAY 17 N,WAUCHULA,FL,33873
765,16503 NACOGDOCHES RD,SAN ANTONIO,TX,78247
769,4150 TAMIAMI TRL S,VENICE,FL,34293
771,1500 E MERRITT ISLAN,MERRITT ISLAND,FL,32952
778,5001 TAYLOR RD,PUNTA GORDA,FL,33950
811,2725 SE HIGHWAY 70,ARCADIA,FL,34266
827,603 E HIGHWAY 243,CANTON,TX,75103
872,1919 N MAIN ST,PEARLAND,TX,77581
888,400 S FRAN,BUTLER,MO,64730
931,5555 20TH ST,VERO BEACH,FL,32966
940,6770 WESTWORTH BLVD,WESTWORTH VILLAGE,TX,76114
956,1001 E EAU GALLIE BL,MELBOURNE,FL,32937
959,2163 W C 48,BUSHNELL,FL,33513
960,11012 NO. WILLIAMS S,DUNNELLON,FL,34432
967,1485 COMMERCIAL WAY,SPRING HILL,FL,34606
1062,150 W EL DORADO BLVD,FRIENDSWOOD,TX,77546
1079,3155 STATE RD 44,NEW SMYRNA BEACH,FL,32168
1084,3838 S SEMORAN BLVD,ORLANDO,FL,32822
1119,3451 TAMIAMI TRL E,NAPLES,FL,34112
1129,13201 RANCH ROAD 620,AUSTIN,TX,78717
1171,8320 LOCKWOOD RIDGE,SARASOTA,FL,34243
1198,1515 N LOOP 1604 E,SAN ANTONIO,TX,78232
1235,5025 NW LOOP 410,SAN ANTONIO,TX,78229
1252,6675 BUSINESS CENTER,HIGHLANDS RANCH,CO,80130
1291,7150 E SPEEDWAY BLVD,TUCSON,AZ,85710
1308,7700 W QUINCY AVE,LITTLETON,CO,80123
1313,1200 SE MILITARY DR,SAN ANTONIO,TX,78214
1325,455 E WETMORE RD,TUCSON,AZ,85705
1347,1430 AUSTIN HWY,SAN ANTONIO,TX,78209
1374,200 S STATE ROAD 434,ALTAMONTE SPRINGS,FL,32714
1381,2555 W APACHE TRL,APACHE JUNCTION,AZ,85120
1405,4600 7TH ST,BAY CITY,TX,77414
1409,10750 WESTVIEW DR,HOUSTON,TX,77043
1482,7011 W WATERS AVE,TAMPA,FL,33634
1513,35404 US HIGHWAY 19,PALM HARBOR,FL,34684
1536,10237 BAY PINES BLVD,ST PETERSBURG,FL,33708
1598,4617 E BELL RD,PHOENIX,AZ,85032
1646,6131 E SOUTHERN AVE,MESA,AZ,85206
1659,60 W BROMLEY LN,BRIGHTON,CO,80601
1688,657 PHOENIX DR,VIRGINIA BEACH,VA,23452
1689,5650 S CHAMBERS RD,AURORA,CO,80015
1691,7701 FRONTAGE RD,OVERLAND PARK,KS,66204
1699,745 W HILL FIELD RD,LAYTON,UT,84041
1708,4848 S 900 W,RIVERDALE,UT,84405
1712,990 MISSOURI AVE N,LARGO,FL,33770
1766,3100 JOHNSON FERRY R,MARIETTA,GA,30062
1768,1355 SANDHILL RD,OREM,UT,84058
1770,20245 ROUTE 19,CRANBERRY TOWNSHIP,PA,16066
1803,4331 THOUSAND OAKS D,SAN ANTONIO,TX,78217
1845,4700 S FLAMINGO RD,COOPER CITY,FL,33330
1861,5815 NORELL AVE N,OAK PARK HEIGHTS,MN,55082
1883,3942 BRODHEAD RD,MONACA,PA,15061
1957,11225 TAMIAMI TRL N,NAPLES,FL,34110
1969,900 WALMART WAY,MIDLOTHIAN,VA,23113
2081,23106 US HIGHWAY 19,CLEARWATER,FL,33765
2086,1700 DALLAS PKWY,PLANO,TX,75093
2096,100 E STREET RD,WARMINSTER,PA,18974
2105,4122 L B J FWY,DALLAS,TX,75244
2112,4915 N PIMA RD,SCOTTSDALE,AZ,85251
2133,5017 W HIGHWAY 290,AUSTIN,TX,78735
2151,12555 W SUNRISE BLVD,SUNRISE,FL,33323
2207,7250 UNION PARK AVE,MIDVALE,UT,84047
2218,26502 TOWNE CENTRE D,FOOTHILL RANCH,CA,92610
2223,9499 SHERIDAN BLVD,WESTMINSTER,CO,80031
2307,11328 S JORDAN GTWY,SOUTH JORDAN,UT,84095
2404,8500 JONES MALTSBERG,SAN ANTONIO,TX,78216
2459,4381 CATTLEMEN RD,SARASOTA,FL,34233
2463,355 STONEBROOK PKWY,FRISCO,TX,75036
2511,949 W GRASSLAND DR,AMERICAN FORK,UT,84003
2523,2595 E IMPERIAL HWY,BREA,CA,92821
2591,151 SW 184TH AVE,PEMBROKE PINES,FL,33029
2599,5555 DE ZAVALA RD,SAN ANTONIO,TX,78249
2671,1175 S ARIZONA AVE,CHANDLER,AZ,85286
2766,15355 N NORTHSIGHT B,SCOTTSDALE,AZ,85260
2767,4505 E MCKELLIPS RD,MESA,AZ,85215
2768,1955 S STAPLEY DR,MESA,AZ,85204
2769,5626 WALZEM RD,SAN ANTONIO,TX,78218
2777,13770 W BELL RD,SURPRISE,AZ,85374
2796,3801 TAMPA RD,OLDSMAR,FL,34677
2843,17961 S US HIGHWAY 4,SUMMERFIELD,FL,34491
2855,16100 W 65TH ST,SHAWNEE,KS,66217
2856,201 SE SALEM ST,OAK GROVE,MO,64075
2892,11101 S PARKER RD,PARKER,CO,80134
2918,730 W EXCHANGE PKWY,ALLEN,TX,75013
2921,534 N HARRISVILLE RD,HARRISVILLE,UT,84404
2922,7635 N LA CHOLLA B,TUCSON,AZ,85741
2926,6000 COIT RD,PLANO,TX,75023
2941,5200 WINDWARD PKWY,ALPHARETTA,GA,30004
2955,1701 W 133RD ST,KANSAS CITY,MO,64145
2987,4301 S UNIVERSITY DR,DAVIE,FL,33328
2993,345 HIGHWAY 6,SUGAR LAND,TX,77478
3058,918 BANDERA RD,SAN ANTONIO,TX,78228
3106,8538 INTERSTATE HWY,SAN ANTONIO,TX,78211
3223,100 CHIPPEWA TOWN CT,BEAVER FALLS,PA,15010
3232,7671 S 3800 W,WEST JORDAN,UT,84084
3241,18551 N 83RD AVE,GLENDALE,AZ,85308
3248,1340 S BEACH BLVD,LA HABRA,CA,90631
3273,15700 METCALF AVE,OVERLAND PARK,KS,66223
3274,9101 N TARRANT PKWY,NORTH RICHLAND HILL,TX,76182
3298,255 FM 518 RD,KEMAH,TX,77565
3313,10900 E BRIARWOOD AV,CENTENNIAL,CO,80112
3366,221 W PARRISH LN,CENTERVILLE,UT,84014
3372,2677 ROOSEVELT BLVD,LARGO,FL,33760
3390,10001 WOODLANDS PKWY,WOODLANDS,TX,77382
3391,6102 FM 3009,SCHERTZ,TX,78154
3415,41232 US HIGHWAY 19,TARPON SPRINGS,FL,34689
3431,2801 E INTERSTATE 20,HUDSON OAKS,TX,76087
3443,48 STATE RT 23,RIVERDALE,NJ,7457
3463,1208 E BRANDON BLVD,BRANDON,FL,33511
3471,3105 COBB PKWY NW,KENNESAW,GA,30152
3474,6225 E STATE ROAD 64,BRADENTON,FL,34208
3477,7250 CARSON BLVD,LONG BEACH,CA,90808
3482,425 COIT RD,PLANO,TX,75075
3501,100 CROSSINGS BLVD,ELVERSON,PA,19520
3510,1710 BROADWAY ST,PEARLAND,TX,77581
3526,7305 BROAD ST,BROOKSVILLE,FL,34601
3538,8500 N WICKHAM RD,MELBOURNE,FL,32940
3541,516 SCHOOL HOUSE RD,KENNETT SQUARE,PA,19348
3585,2901 RILEY FUZZEL RD,SPRING,TX,77386
3589,350 HOPE AVE,SALT LAKE CITY,UT,84115
3620,13502 HAMILTON VIEW,RIVERTON,UT,84065
3644,201 HILLCREST PKWY,CHESAPEAKE,VA,23322
3709,2427 GRESHAM RD SE,ATLANTA,GA,30316
3748,3826 COBB PKWY NW,ACWORTH,GA,30101
3789,1959 WALL AVE,OGDEN,UT,84401
3824,7155 SHERIDAN BLVD,WESTMINSTER,CO,80003
3838,2010 VILLAGE CENTER,TARENTUM,PA,15084
3848,2228 W 1700 S,SYRACUSE,UT,84075
3861,5290 S POWER RD,GILBERT,AZ,85295
3867,200 W 136TH AVE,WESTMINSTER,CO,80234
3877,1800 NE 12TH AVE,GAINESVILLE,FL,32641
3884,3435 E BROADWAY BLVD,TUCSON,AZ,85716
3887,1041 US HIGHWAY 27 N,AVON PARK,FL,33825
3896,21655 N LAKE PLEASAN,PEORIA,AZ,85382
4068,1206 N CANYON CREEK,SPANISH FORK,UT,84660
4101,3705 E SOUTH ST,LONG BEACH,CA,90805
4131,9427 CULEBRA RD,SAN ANTONIO,TX,78251
4165,2245 JACKSBORO HWY,FORT WORTH,TX,76114
4185,2395 PEACHTREE PKWY,CUMMING,GA,30041
4191,6920 FOREST AVE,RICHMOND,VA,23230
4208,2705 E PARLEYS WAY,SALT LAKE CITY,UT,84109
4232,4747 E CACTUS RD,PHOENIX,AZ,85032
4240,3060 JUSTIN RD,HIGHLAND VILLAGE,TX,75077
4258,11 VILLAGE PKWY,FREDERICKSBURG,VA,22406
4262,4085 WEDGEWOOD LN,THE VILLAGES,FL,32162
4288,4651 W 121ST AVE,BROOMFIELD,CO,80020
4509,8840 BENBROOK BLVD,BENBROOK,TX,76126
4554,2525 W ANDERSON LN,AUSTIN,TX,78757
4567,7101 E 128TH AVE,BRIGHTON,CO,80602
4611,5701 SILVERHEEL ST,SHAWNEE,KS,66226
4639,2100 LEGACY CIR,ELIZABETH,CO,80107
4681,4302 W GANDY BLVD,TAMPA,FL,33611
4687,275 N GULPH RD,KING OF PRUSSIA,PA,19406
4689,4689 W CEDAR HILLS D,CEDAR HILLS,UT,84062
4690,I-83 & YOCUMTUN EXIT,ST PETERSBURG,FL,33713
5031,8280 N CORTARO RD,TUCSON,AZ,85743
5049,13420 W COAL MINE AV,LITTLETON,CO,80127
5145,1603 VANCE JACKSON R,SAN ANTONIO,TX,78213
5146,8030 BANDERA RD,SAN ANTONIO,TX,78250
5186,2501 S MARKET ST,GILBERT,AZ,85295
5190,2501 W HAPPY VALLEY,PHOENIX,AZ,85085
5211,5001 MCKINNEY RANCH,MCKINNEY,TX,75070
5218,3501 34TH ST S,ST PETERSBURG,FL,33711
5233,5675 W 6200 S,WEST VALLEY CITY,UT,84118
5234,1632 N 2000 W,CLINTON,UT,84015
5235,9151 S QUARRY BEND D,SANDY,UT,84094
5264,13140 S TAMIAMI TRL,OSPREY,FL,34229
5270,585 N STATE ST,LINDON,UT,84042
5311,1721 NORT CUSTER,MCKINNEY,TX,75071
5326,9570 SW HIGHWAY 200,OCALA,FL,34481
5329,4435 W ANTHEM WAY,ANTHEM,AZ,85086
5341,500 SUMMIT BLVD,BROOMFIELD,CO,80021
5347,19975 S TAMIAMI TRL,ESTERO,FL,33928
5350,4627 S 900 E,SALT LAKE CITY,UT,84117
5428,1710 S GREENFIELD RD,MESA,AZ,85206
5641,1000 E IMPERIAL HWY,LA HABRA,CA,90631
5649,299 VALLEY GATE DR,WARRINGTON,PA,18976
5672,2662 W LUCAS RD,LUCAS,TX,75002
5676,2770 WEST EVANS AVEN,DENVER,CO,80219
5768,800 E SOUTHERN AVE,TEMPE,AZ,85282
5786,1100 OLD PHILADELPHI,JASPER,GA,30143
5799,2711 S HOUGHTON RD,TUCSON,AZ,85730
5814,2200 HOLLY SPRINGS P,HOLLY SPRINGS,GA,30115
5835,34399 N CAVE CREEK R,CAVE CREEK,AZ,85331
5874,22015 HAWTHORNE BLVD,TORRANCE,CA,90503
5894,5511 DEEP LAKE RD,OVIEDO,FL,32765
5922,546 FIRST COLONIAL R,VIRGINIA BEACH,VA,23451
5930,88 E ORANGETHORPE AV,ANAHEIM,CA,92801
6190,1951 W HICKPOCHEE AV,LABELLE,FL,33935
6477,9600 N METRO PKWY W,PHOENIX,AZ,85051
6480,3460 W CHANDLER BLVD,CHANDLER,AZ,85226
8930,15757 COIT RD,DALLAS,TX,75248