Tracking Number,Location,Street,City,State,Zip,,Serial Number,Asset Tag
777792364558,768,1313 N Fry Rd,Katy,TX,77449-3343,,PA7L41MGG7210403W,XTH1GPQ7
777792481998,201,2608 Green Mount Commons Dr,BELLEVILLE,IL,62221-6742,,PA7L41MGG7210290W,XLLP7BG1
777792490628,5767,9354 Ambleside Dr,Fishers,IN,46038-0000,,PA7L41MGG7210436W,X06W3PZB
777792496810,3584,5405 South Rice Avenue,Houston,TX,77081-0000,,PA7L41MGG7210277W,XKYS9CC4
777792501103,1409,10750 Westview Dr,Houston,TX,77043-5019,,PA7L41MGG7210208W,X6CV0VKX
777792507215,4450,12981 Shelbyville Rd,Middletown,KY,40243-1538,,PA7L41MGG7210285W,XXYX3JYS
777792512188,2724,1107 Shaver St,Pasadena,TX,77506-4405,,PA7L41MGG7210416W,XXJ6CQQH
777792516481,5297,143 Thierman Ln,Louisville,KY,40207-5009,,PA7L41MGG7210294W,XM2VCP2X
777792520760,7357,8208 Barker Cypress Rd,Cypress,TX,77433-0000,,PA7L41MGG7210581W,XGYX55KF
777792523472,5443,4650 S Emerson Ave,Indianapolis,IN,46203-5932,,PA7L41MGG7240005W,X6FPMS1G
777792529459,805,653 Gravois Bluffs Blvd,FENTON,MO,63026-7716,,PA7L41MGG7210461W,XXN9HSDS
777792534080,5417,175 Outer Loop,Louisville,KY,40214-5544,,PA7L41MGG7210110W,XKG5STQ4
777792538020,7290,6501 Veterans Memorial Pkwy,Crestwood,KY,40014-0000,,PA7L41MGG7210305W,XPF731G1
777792541736,648,1661 Jungermann Rd,SAINT PETERS,MO,63304-2821,,PA7L41MGG7210317W,X7C8MZRW
777792546841,512,10727 Gateway Blvd W,El Paso,TX,79935-4906,,PA7L41MGG7210559W,XYPFF5Z0
777792552218,2691,2910 Grant Line Rd,New Albany,IN,47150-2456,,PA7L41MGG7210342W,XL00HGLT
777792557209,1279,10411 N Freeway 45,Houston,TX,77037-1124,,PA7L41MGG7210256W,XVVJP4D2
777792561999,2612,1850 N Zaragoza Rd,El Paso,TX,79936-7911,,PA7L41MGG7210095W,X2FW8D7P
777792609633,526,3706 Diann Marie Rd,Louisville,KY,40241-3818,,PA7L41MGG7210302W,X1WTNW9W
777792614220,4416,13003 Tomball Pkwy,Houston,TX,77086-3122,,PA7L41MGG7210203W,X205YWNT
777792617723,3425,9598 Rowlett Rd,Houston,TX,77075-2414,,PA7L41MGG7210519W,X7RRXXG3
777792623306,5427,3031 Mid Rivers Mall Dr,St. Peters,MO,63376-0000,,PA7L41MGG7210412W,X5MB8V8W
777792626224,7361,12631 Broadway Street,Pearland,TX,77584-0000,,PA7L41MGG7210330W,XR4DN25Z
777792634370,1514,2201 Michigan Ave,Arnold,MO,63010-2151,,PA7L41MGG7210333W,X60Q70PQ
777792637644,3640,1118 Silber Rd,Houston,TX,77055-7126,,PA7L41MGG7210217W,XVRHLQYJ
777792642724,3061,7437 Watson Road,Shrewsbury,MO,63119-0000,,PA7L41MGG7210261W,XPZR1F0W
777792645322,5287,21150 Kuykendahl Rd,Spring,TX,77379-3300,,PA7L41MGG7210056W,XXZ43NRN
777792648803,3294,7101 Cedar Springs Blvd,Louisville,KY,40291-2587,,PA7L41MGG7210580W,XLCL2VVK
777792654235,1837,9451 Fm 1960 Bypass,Humble,TX,77338-4035,,PA7L41MGG7210155W,X2CXBF8X
777792659720,5353,24809 Aldine Westfield Rd,Spring,TX,77373-0000,,PA7L41MGG7210404W,X0Q0SC6L
777792809948,5091,26270 Northwest Fwy,Cypress,TX,77429-1761,,PA7L41MGG7210238W,X174CD84
777792819000,872,1919 N Main St,Pearland,TX,77581-3305,,PA7L41MGG7210501W,XM3KMBP0
777792822728,1015,7555 N Mesa St,El Paso,TX,79912-3505,,PA7L41MGG7210334W,X4LWLKC7
777792827010,297,23561 Us Hwy 59,Porter,TX,77365-4991,,PA7L41MGG7210258W,XD9HY9CF
777792830093,1040,15955 Fm 529 Rd,Houston,TX,77095-2513,,PA7L41MGG7210071W,X95Q7BH3
777792835051,5116,9025 Spencer Hwy,La Porte,TX,77571-3870,,PA7L41MGG7210086W,X1QVCBTS
777792839013,4415,8115 North Loop Dr,El Paso,TX,79907-4112,,PA7L41MGG7210445W,X98K39Z1
777792843303,3572,10505 Broadway St,Pearland,TX,77584-8076,,PA7L41MGG7210007W,XJJ8VJBH
777792915350,2993,345 Highway 6,Sugar Land,TX,77478-4933,,PA7L41MGG7210352W,X67JJ1RY
777792919757,3296,2700 S Kirkwood Rd,Houston,TX,77077-6696,,PA7L41MGG7210058W,XQ30L2RR
777792921106,4538,6060 N Fry Rd,Katy,TX,77449-1800,,PA7L41MGG7210185W,XPCN97SH
777792926895,4298,9235 N Sam Houston Pkwy E,Humble,TX,77396-3160,,PA7L41MGG7210371W,XYBDSCW5
777792929368,5947,5631 Dyer St,El Paso,TX,79904-6204,,PA7L41MGG7210026W,XQ8SFP0R
777792934780,3297,12353 Fm 1960 Rd W,Houston,TX,77065-4993,,PA7L41MGG7210281W,XQ9YXPY2
777792935948,3213,3040 College Park Dr,The Woodlands,TX,77384-8002,,PA7L41MGG7210106W,XRMB9S6M
777792943810,3452,4810 Highway 6 N,Houston,TX,77084-2979,,PA7L41MGG7210254W,XK1HLQQB
777792946463,3500,5655 E Sam Houston Pkwy N,Houston,TX,77015-3250,,PA7L41MGG7210036W,XF6BWCXH
777792950742,4466,13322 West Airport Blvd,Sugar Land,TX,77478-0000,,PA7L41MGG7210343W,X6YH643S
777792955104,2066,2727 Dunvale Rd,Houston,TX,77063-4401,,PA7L41MGG7210296W,XKPHYL5Y
777792959647,3226,25108 Market Place Dr,Katy,TX,77494-4430,,PA7L41MGG7210021W,XHT6X6N2
777792962919,1476,1351 Veterans Pkwy,Clarksville,IN,47129-7747,,PA7L41MGG7210497W,X5LX3D67
777792968170,589,11901 Standiford Plaza Dr,Louisville,KY,40229-5906,,PA7L41MGG7210316W,XJG0TY1X
777792970766,1459,7245 Us 31 S,Indianapolis,IN,46227-8538,,PA7L41MGG7210545W,X0HGLV26
777792974360,744,6626 Fm 1960 Rd E,Humble,TX,77346-2712,,PA7L41MGG7210496W,X2W9TF6S
777792979546,1728,2321 Charles St,Anderson,IN,46013-2762,,PA7L41MGG7210541W,XWBVB1H8
777792984074,4468,20903 Highland Knolls Dr,Katy,TX,77450-0000,,PA7L41MGG7210159W,XWW2X644
777792988437,1177,201 Highlands Boulevard Dr,Manchester,MO,63011-4383,,PA7L41MGG7210362W,X76T7LBK
777792995417,5421,45 Sutters Mill Rd,St. Peters,MO,63376-0000,,PA7L41MGG7210076W,X9B8Y50C
777793000740,4053,5555 Michigan Rd,Indianapolis,IN,46228-0000,,PA7L41MGG7210091W,XRD4P1TK
777793005660,772,3506 Highway 6 S,Houston,TX,77082-4204,,PA7L41MGG7210102W,XPSTNJHK
777793006288,256,400 Junction Dr,Glen Carbon,IL,62034-4323,,PA7L41MGG7210002W,X3DMWY48
777793012890,3302,9460 W Sam Houston Pkwy S,Houston,TX,77099-1850,,PA7L41MGG7210477W,XSQ5NMF8
777793017241,5717,7831 Paseo Del Norte Blvd,El Paso,TX,79912-8001,,PA7L41MGG7210331W,XNM7T429
777793024254,2257,13484 Northwest Fwy,Houston,TX,77040-6007,,PA7L41MGG7210271W,XL3RLKHW
777793030076,1761,379 W Pontoon Rd,Granite City,IL,62040-6848,,PA7L41MGG7210584W,XGM643SS
777793037162,1161,2897 Veterans Memorial Pkwy,SAINT CHARLES,MO,63303-3526,,PA7L41MGG7210052W,XBJZYRBQ
777793041761,5045,22605 State Highway 249,Tomball,TX,77375-8239,,PA7L41MGG7210047W,XFDD69CV
777793044565,3435,1133 No Emerson Road,Greenwood,IN,46143-0000,,PA7L41MGG7210008W,XFXNVJ9R
777793069341,602,1025 Sawdust Rd,Spring,TX,77380-0000,,PA7L41MGG7210210W,XZRSCR7Y
777793071591,3827,5660 W Grand Pkwy S,Richmond,TX,77406-5880,,PA7L41MGG7210433W,XKBCWNKW
777793075678,4524,5360 Dixie Hwy,Louisville,KY,40216-1564,,PA7L41MGG7210356W,XXHY84YY
777793090277,2505,5501 Highway 6,Missouri City,TX,77459-4190,,PA7L41MGG7210067W,XPS22YFH
777793094890,4618,2625 W Main St,League City,TX,77573-0000,,PA7L41MGG7210522W,X2WG748G
777793097694,1601,2001 E 151st St,Carmel,IN,46033-7737,,PA7L41MGG7210153W,XT0KZ7CJ
777793106821,5418,2020 Bashford Manor Ln,Louisville,KY,40218-2114,,PA7L41MGG7210211W,X0TFVK58
777793111224,5183,3800 Ruckriegel Pkwy,JEFFERSONTOWN,KY,40299-3958,,PA7L41MGG7210494W,X28110NW
777793115701,5313,6100 Ronald Reagan Dr,Lake Saint Louis,MO,63367-2660,,PA7L41MGG7210532W,XRZ5WPLB
777793120001,5612,2391 S Wayside Dr,Houston,TX,77023-0000,,PA7L41MGG7210223W,XG55R0G3
777793124901,3509,11755 Beechnut St,Houston,TX,77072-4107,,PA7L41MGG7210392W,XVYYK2RD
777793129009,2788,400 W Northfield Dr,Brownsburg,IN,46112-8122,,PA7L41MGG7210135W,X99RCDGQ
777793127484,915,11210 W Airport Blvd,Stafford,TX,77477-3000,,PA7L41MGG7210510W,X2RV7P0K
777793135839,5959,111 Yale St,Houston,TX,77007-3730,,PA7L41MGG7210072W,XBPRYNJQ
777793140941,2213,3270 Telegraph Rd,Saint Louis,MO,63125-5565,,PA7L41MGG7210205W,XF9NTCDY
777793143631,5388,1701 W Fm 646 Rd,League City,TX,77573-4968,,PA7L41MGG7210093W,XTM4JP0G
777793147475,2201,7101 Gateway Blvd W,El Paso,TX,79925-5604,,PA7L41MGG7210163W,X8HN52X6
777793151754,3542,11242 S Gessner Dr,Houston,TX,77071-1910,,PA7L41MGG7210078W,X1DK9Q7C
777793155267,3763,12236 Montana Ave,El Paso,TX,79938-4851,,PA7L41MGG7210447W,X35BJW1F
777793157730,1170,10445 Dixie Hwy,Louisville,KY,40272-3953,,PA7L41MGG7210177W,X1GWNYDR
777793159262,849,155 Louetta Xing,Spring,TX,77373-3007,,PA7L41MGG7210300W,X26HRJBY
777793160244,546,5330 Fm 1640 Rd,Richmond,TX,77469-5435,,PA7L41MGG7210150W,X04NDXMQ
777793162328,5408,3805 S Keystone Ave,Indianapolis,IN,46227-3540,,PA7L41MGG7210179W,XSG1153X
777793163780,2786,9500 E Us Highway 36,Avon,IN,46123-7366,,PA7L41MGG7210409W,XRSBK26C
777793167731,194,4900 Garth Rd,Baytown,TX,77521-2257,,PA7L41MGG7210017W,XX0TWJ8Z
777793170131,5927,3390 N Highway 67,Florissant,MO,63033-1605,,PA7L41MGG7210405W,XXD777XQ
777793172513,1418,1530 West Hwy 50,O Fallon,IL,62269-1619,,PA7L41MGG7210176W,X4YVMCXK
777793174045,2600,100 Thf Blvd,Chesterfield,MO,63005-1123,,PA7L41MGG7210224W,XGCL1XFT
777793176059,6931,4840 Outer Loop,Louisville,KY,40219-0000,,PA7L41MGG7210188W,XKGPZL0M
777793177309,964,9441 Alameda Ave,El Paso,TX,79907-5601,,PA7L41MGG7210526W,X342Q7WG
